[{"OBJECT_NAME":"GOMX-1","OBJECT_ID":"2013-066Q","EPOCH":"2026-03-09T23:03:54.857376","MEAN_MOTION":14.69103088,"ECCENTRICITY":0.01302226,"INCLINATION":97.6568,"RA_OF_ASC_NODE":275.6493,"ARG_OF_PERICENTER":36.6495,"MEAN_ANOMALY":324.3532,"EPHEMERIS_TYPE":0,"CLASSIFICATION_TYPE":"U","NORAD_CAT_ID":39430,"ELEMENT_SET_NO":999,"REV_AT_EPOCH":65534,"BSTAR":0.00051711143,"MEAN_MOTION_DOT":3.409e-5,"MEAN_MOTION_DDOT":0},{"OBJECT_NAME":"SL-8 DEB","OBJECT_ID":"2002-054E","EPOCH":"2026-03-09T02:36:59.276160","MEAN_MOTION":14.81701643,"ECCENTRICITY":0.0028156,"INCLINATION":98.241,"RA_OF_ASC_NODE":298.4882,"ARG_OF_PERICENTER":30.5083,"MEAN_ANOMALY":329.7759,"EPHEMERIS_TYPE":0,"CLASSIFICATION_TYPE":"U","NORAD_CAT_ID":27769,"ELEMENT_SET_NO":999,"REV_AT_EPOCH":24282,"BSTAR":0.00071249751,"MEAN_MOTION_DOT":5.596e-5,"MEAN_MOTION_DDOT":0}]
